<?xml version='1.0' encoding='UTF-8'?>
<osm version="0.6" generator="osmfilter 1.4.4">
	<bounds minlat="41.9053" minlon="21.2537" maxlat="42.088" maxlon="21.6959"/>
	<node id="446285567" lat="41.9988883" lon="21.391876" version="4" timestamp="2016-04-18T15:12:29Z" changeset="38669950" uid="1468248" user="TheBlackMan">
		<tag k="amenity" v="hospital"/>
		<tag k="name" v="Систина"/>
	</node>
	<node id="479803481" lat="42.006422" lon="21.3825263" version="5" timestamp="2017-11-20T19:15:02Z" changeset="53958127" uid="6970734" user="Dekacc">
		<tag k="amenity" v="hospital"/>
		<tag k="name" v="Eye Center VIZIA"/>
	</node>
	<node id="552740011" lat="42.0374713" lon="21.4252136" version="1" timestamp="2009-11-03T07:58:28Z" changeset="3022654" uid="158784" user="bjankuloski">
		<tag k="amenity" v="hospital"/>
	</node>
	<node id="1092272137" lat="42.0080827" lon="21.338885" version="1" timestamp="2011-01-08T20:34:45Z" changeset="6908393" uid="392957" user="bobanmkd">
		<tag k="amenity" v="hospital"/>
	</node>
	<node id="1092272145" lat="42.007708" lon="21.3381661" version="1" timestamp="2011-01-08T20:34:45Z" changeset="6908393" uid="392957" user="bobanmkd">
		<tag k="amenity" v="hospital"/>
	</node>
	<node id="1092272150" lat="42.0087603" lon="21.3394643" version="1" timestamp="2011-01-08T20:34:45Z" changeset="6908393" uid="392957" user="bobanmkd">
		<tag k="amenity" v="hospital"/>
	</node>
	<node id="1092300445" lat="42.0481616" lon="21.3467492" version="2" timestamp="2013-07-08T21:11:22Z" changeset="16879734" uid="131662" user="borces">
		<tag k="amenity" v="hospital"/>
		<tag k="is_in" v="Volkovo"/>
	</node>
	<node id="1381604857" lat="41.9703449" lon="21.442001" version="1" timestamp="2011-08-01T09:41:52Z" changeset="8888661" uid="480785" user="BNicovski">
		<tag k="amenity" v="hospital"/>
		<tag k="name" v="Болница за зависности"/>
	</node>
	<node id="1381606894" lat="41.986937" lon="21.4346369" version="2" timestamp="2011-08-11T13:53:55Z" changeset="8985335" uid="70696" user="xybot">
		<tag k="amenity" v="hospital"/>
		<tag k="name" v="Адриалаб"/>
	</node>
	<node id="1734530395" lat="42.0043897" lon="21.344957" version="4" timestamp="2019-05-16T12:03:35Z" changeset="70315785" uid="158784" user="bjankuloski">
		<tag k="amenity" v="hospital"/>
		<tag k="emergency" v="no"/>
		<tag k="int_name" v="European Eye Hospital"/>
		<tag k="name" v="Европска очна болница"/>
	</node>
	<node id="1734530420" lat="42.004302" lon="21.3440665" version="2" timestamp="2019-05-16T12:03:35Z" changeset="70315785" uid="158784" user="bjankuloski">
		<tag k="amenity" v="hospital"/>
		<tag k="emergency" v="yes"/>
		<tag k="int_name" v="Sveti Lazar Hospital"/>
		<tag k="name" v="Болница „Свети Лазар“"/>
		<tag k="name:en" v="Saiint Lazarus Hospital"/>
	</node>
	<node id="1747627317" lat="41.986065" lon="21.4331367" version="1" timestamp="2012-05-10T15:20:27Z" changeset="11559823" uid="678915" user="dominator7">
		<tag k="amenity" v="hospital"/>
	</node>
	<node id="4125379517" lat="42.0009982" lon="21.4128098" version="4" timestamp="2017-12-01T23:11:34Z" changeset="54253256" uid="6970734" user="Dekacc">
		<tag k="addr:city" v="Cкoпje"/>
		<tag k="addr:postcode" v="1000"/>
		<tag k="addr:street" v="Булевар Партизански Одреди"/>
		<tag k="amenity" v="hospital"/>
		<tag k="name" v="Центар за ментално здравје"/>
		<tag k="name:en" v="Center for mental health"/>
		<tag k="operator" v="Министерство за здравство"/>
	</node>
	<node id="4125379518" lat="42.0010726" lon="21.4130411" version="3" timestamp="2017-12-01T23:11:34Z" changeset="54253256" uid="6970734" user="Dekacc">
		<tag k="addr:city" v="Cкoпje"/>
		<tag k="addr:postcode" v="1000"/>
		<tag k="addr:street" v="Булевар Партизански Одреди"/>
		<tag k="amenity" v="hospital"/>
		<tag k="name" v="ПЗУ „Д-р Горица“"/>
		<tag k="name:en" v="PZU &#34;D-r Gorica&#34;"/>
	</node>
	<node id="4138200603" lat="42.0005964" lon="21.4145316" version="3" timestamp="2018-04-13T14:33:52Z" changeset="58066445" uid="6970734" user="Dekacc">
		<tag k="amenity" v="hospital"/>
		<tag k="name" v="Неуромедика"/>
		<tag k="name:en" v="Neuromedika"/>
	</node>
	<node id="4281387289" lat="42.0160266" lon="21.5118538" version="4" timestamp="2019-02-11T22:41:59Z" changeset="67114970" uid="8759140" user="_Poliwrath_">
		<tag k="addr:street" v="alija avdovikj 3/2-1"/>
		<tag k="amenity" v="hospital"/>
		<tag k="internet_access" v="wlan"/>
		<tag k="name" v="Medical Point"/>
		<tag k="opening_hours" v="Mo-Su 08:00-22:00"/>
		<tag k="phone" v="070911013"/>
	</node>
	<node id="4512189989" lat="42.0179859" lon="21.3825697" version="1" timestamp="2016-11-20T15:02:17Z" changeset="43823735" uid="3812164" user="Aleksandar Georgievski">
		<tag k="addr:housenumber" v="10"/>
		<tag k="addr:postcode" v="1000"/>
		<tag k="addr:street" v="Skupi22"/>
		<tag k="amenity" v="hospital"/>
		<tag k="email" v="medikacentar@yahoo.com"/>
		<tag k="internet_access" v="wlan"/>
		<tag k="name" v="Медика Центар"/>
		<tag k="name:en" v="Medica Centar"/>
		<tag k="name:mk" v="Медика Центар"/>
		<tag k="opening_hours" v="24/7"/>
		<tag k="phone" v="0038970206097"/>
	</node>
	<node id="4776265422" lat="42.0035328" lon="21.4407164" version="1" timestamp="2017-04-05T07:00:14Z" changeset="47465741" uid="5617707" user="Сако М">
		<tag k="amenity" v="hospital"/>
		<tag k="name" v="ЈЗУ ЗДРАВСТВЕН ДОМ"/>
	</node>
	<node id="5130474890" lat="41.9933702" lon="21.4271939" version="1" timestamp="2017-09-26T10:20:31Z" changeset="52380711" uid="361707" user="0xF00F">
		<tag k="amenity" v="hospital"/>
		<tag k="name" v="Здравствен дом „Железничар“"/>
		<tag k="name:en" v="Železničar Health Centre"/>
	</node>
	<node id="5550858021" lat="42.0082791" lon="21.4597092" version="1" timestamp="2018-04-13T18:30:49Z" changeset="58072694" uid="7229611" user="Ali Kadriu">
		<tag k="amenity" v="hospital"/>
		<tag k="name" v="Remedika"/>
	</node>
	<node id="5600176621" lat="42.0319727" lon="21.4333393" version="1" timestamp="2018-05-06T13:02:51Z" changeset="58729600" uid="7958263" user="Dren Mustafa">
		<tag k="amenity" v="hospital"/>
		<tag k="name:en" v="bioenergy"/>
	</node>
	<node id="5601794407" lat="41.9389005" lon="21.6155055" version="2" timestamp="2019-02-19T22:46:05Z" changeset="67370738" uid="9414390" user="Gr8fulDead">
		<tag k="amenity" v="hospital"/>
		<tag k="name" v="Euroitalia"/>
	</node>
	<node id="5646430122" lat="42.0130459" lon="21.4434522" version="1" timestamp="2018-05-27T21:43:13Z" changeset="59322919" uid="8325403" user="Fahrudin Zihra Hamza">
		<tag k="addr:street" v="Ќемал Ататурк"/>
		<tag k="amenity" v="hospital"/>
		<tag k="name" v="Visar"/>
	</node>
	<node id="7027084885" lat="41.9919437" lon="21.4235554" version="1" timestamp="2019-12-02T20:17:33Z" changeset="77841054" uid="10517616" user="DemonHyper">
		<tag k="amenity" v="hospital"/>
		<tag k="name" v="Стоматолошка Ординација"/>
		<tag k="name:en" v="Dentist"/>
	</node>
	<way id="28212175" version="5" timestamp="2017-12-27T00:10:36Z" changeset="54943294" uid="6970734" user="Dekacc">
		<nd ref="309867133"/>
		<nd ref="309867134"/>
		<nd ref="309867135"/>
		<nd ref="309867137"/>
		<nd ref="3650810528"/>
		<nd ref="3650810327"/>
		<nd ref="5305559568"/>
		<nd ref="309867133"/>
		<tag k="amenity" v="hospital"/>
		<tag k="name" v="Поликлиника Букурешт"/>
	</way>
	<way id="28212201" version="7" timestamp="2016-04-19T14:40:23Z" changeset="38696633" uid="1468248" user="TheBlackMan">
		<nd ref="309867277"/>
		<nd ref="309867278"/>
		<nd ref="4133414551"/>
		<nd ref="4133414554"/>
		<nd ref="309867279"/>
		<nd ref="1868812091"/>
		<nd ref="309867280"/>
		<nd ref="1868812163"/>
		<nd ref="309867277"/>
		<tag k="amenity" v="hospital"/>
		<tag k="emergency" v="yes"/>
		<tag k="name" v="Воена Болница"/>
	</way>
	<way id="32299002" version="8" timestamp="2015-07-11T19:02:34Z" changeset="32568965" uid="1468248" user="TheBlackMan">
		<nd ref="363454177"/>
		<nd ref="363454179"/>
		<nd ref="1875061197"/>
		<nd ref="363454183"/>
		<nd ref="363454177"/>
		<tag k="addr:city" v="Cкoпje"/>
		<tag k="addr:city:en" v="Skopje"/>
		<tag k="addr:country" v="MK"/>
		<tag k="addr:housenumber" v="87"/>
		<tag k="addr:postcode" v="1000"/>
		<tag k="addr:street" v="Влае"/>
		<tag k="amenity" v="hospital"/>
		<tag k="building" v="yes"/>
		<tag k="name" v="Неуромедика"/>
	</way>
	<way id="32658092" version="8" timestamp="2016-11-15T14:26:17Z" changeset="43672024" uid="2242362" user="e8aga9f">
		<nd ref="367158765"/>
		<nd ref="1870361973"/>
		<nd ref="367158770"/>
		<nd ref="367158771"/>
		<nd ref="1870347282"/>
		<nd ref="1870347276"/>
		<nd ref="1870347271"/>
		<nd ref="1870347255"/>
		<nd ref="1870347275"/>
		<nd ref="1870347278"/>
		<nd ref="1870372878"/>
		<nd ref="367158772"/>
		<nd ref="1870372914"/>
		<nd ref="367158757"/>
		<nd ref="1870372870"/>
		<nd ref="1870347257"/>
		<nd ref="4502526763"/>
		<nd ref="367158758"/>
		<nd ref="1870372879"/>
		<nd ref="1870372893"/>
		<nd ref="367158760"/>
		<nd ref="367158761"/>
		<nd ref="367158763"/>
		<nd ref="1870347270"/>
		<nd ref="1870347280"/>
		<nd ref="1870347285"/>
		<nd ref="1870347259"/>
		<nd ref="367158764"/>
		<nd ref="367158765"/>
		<tag k="amenity" v="hospital"/>
		<tag k="name" v="Психијатриската болница Бардовци"/>
	</way>
	<way id="32687572" version="11" timestamp="2019-08-19T19:44:13Z" changeset="73513109" uid="1730904" user="donovaly">
		<nd ref="367836127"/>
		<nd ref="367836128"/>
		<nd ref="367836129"/>
		<nd ref="367836130"/>
		<nd ref="367836131"/>
		<nd ref="367836132"/>
		<nd ref="367836133"/>
		<nd ref="367836135"/>
		<nd ref="367836137"/>
		<nd ref="367836139"/>
		<nd ref="6724958093"/>
		<nd ref="6724958094"/>
		<nd ref="6724958095"/>
		<nd ref="6724958096"/>
		<nd ref="367836141"/>
		<nd ref="6724958119"/>
		<nd ref="3832632307"/>
		<nd ref="5104528435"/>
		<nd ref="367836145"/>
		<nd ref="367836127"/>
		<tag k="addr:street" v="Булевар Мајка Тереза"/>
		<tag k="amenity" v="hospital"/>
		<tag k="emergency" v="yes"/>
		<tag k="name" v="Клинички центар - Државна болница"/>
		<tag k="opening_hours" v="24/7"/>
	</way>
	<way id="34159646" version="11" timestamp="2015-07-11T19:02:48Z" changeset="32568965" uid="1468248" user="TheBlackMan">
		<nd ref="391826997"/>
		<nd ref="391827000"/>
		<nd ref="418782887"/>
		<nd ref="418783009"/>
		<nd ref="418783011"/>
		<nd ref="418782888"/>
		<nd ref="391827001"/>
		<nd ref="391827002"/>
		<nd ref="418782889"/>
		<nd ref="418782890"/>
		<nd ref="418783927"/>
		<nd ref="418783928"/>
		<nd ref="418783929"/>
		<nd ref="418783930"/>
		<nd ref="418782891"/>
		<nd ref="418782892"/>
		<nd ref="391826997"/>
		<tag k="addr:city" v="Cкoпje"/>
		<tag k="addr:city:en" v="Skopje"/>
		<tag k="addr:country" v="MK"/>
		<tag k="addr:postcode" v="1000"/>
		<tag k="amenity" v="hospital"/>
		<tag k="building" v="yes"/>
		<tag k="int_name" v="Poliklinika Jane Sandaski"/>
		<tag k="name" v="Поликлиника Јане Сандански"/>
		<tag k="name:en" v="Polyclinic Jane Sandaski"/>
	</way>
	<way id="37766954" version="4" timestamp="2012-10-11T23:26:27Z" changeset="13461076" uid="131662" user="borces">
		<nd ref="443017288"/>
		<nd ref="443017289"/>
		<nd ref="443017291"/>
		<nd ref="443017293"/>
		<nd ref="443017288"/>
		<tag k="amenity" v="hospital"/>
		<tag k="building" v="yes"/>
		<tag k="int_name" v="Zdravstvena Stanica &#34;Madžari I&#34;"/>
		<tag k="name" v="Здравствена Станица &#34;Маџари I&#34;"/>
	</way>
	<way id="37998632" version="7" timestamp="2017-12-16T14:51:49Z" changeset="54681982" uid="6970734" user="Dekacc">
		<nd ref="446285590"/>
		<nd ref="5287633658"/>
		<nd ref="446285591"/>
		<nd ref="446285593"/>
		<nd ref="446285594"/>
		<nd ref="5287633663"/>
		<nd ref="5287633662"/>
		<nd ref="446285601"/>
		<nd ref="5287633661"/>
		<nd ref="5287633660"/>
		<nd ref="446285606"/>
		<nd ref="446285618"/>
		<nd ref="5287633664"/>
		<nd ref="446285627"/>
		<nd ref="446285630"/>
		<nd ref="446285638"/>
		<nd ref="446285641"/>
		<nd ref="446285649"/>
		<nd ref="446285652"/>
		<nd ref="446285655"/>
		<nd ref="446285656"/>
		<nd ref="5287633659"/>
		<nd ref="446285659"/>
		<nd ref="446285661"/>
		<nd ref="446285667"/>
		<nd ref="446285669"/>
		<nd ref="446285590"/>
		<tag k="addr:city" v="Cкoпje"/>
		<tag k="addr:city:en" v="Skopje"/>
		<tag k="addr:country" v="MK"/>
		<tag k="addr:postcode" v="1000"/>
		<tag k="amenity" v="hospital"/>
		<tag k="building" v="yes"/>
		<tag k="name" v="Институт по белодробни заболувања кај децата - Козле"/>
	</way>
	<way id="38002612" version="2" timestamp="2015-08-03T12:32:09Z" changeset="33068460" uid="1468248" user="TheBlackMan">
		<nd ref="446320919"/>
		<nd ref="446320921"/>
		<nd ref="446320922"/>
		<nd ref="446320924"/>
		<nd ref="446320919"/>
		<tag k="addr:city" v="Skopje"/>
		<tag k="addr:postcode" v="1000"/>
		<tag k="addr:street" v="Булевар Јане Сандански"/>
		<tag k="amenity" v="hospital"/>
		<tag k="emergency" v="no"/>
		<tag k="int_name" v="Majcin Dom"/>
		<tag k="name" v="Мајчин Дом"/>
	</way>
	<way id="38082546" version="8" timestamp="2015-07-11T19:03:02Z" changeset="32568965" uid="1468248" user="TheBlackMan">
		<nd ref="447906076"/>
		<nd ref="447906078"/>
		<nd ref="447906079"/>
		<nd ref="447906081"/>
		<nd ref="447906076"/>
		<tag k="addr:city" v="Cкoпje"/>
		<tag k="addr:city:en" v="Skopje"/>
		<tag k="addr:country" v="MK"/>
		<tag k="addr:housenumber" v="44"/>
		<tag k="addr:postcode" v="1000"/>
		<tag k="addr:street" v="Миле Поп Јорданов"/>
		<tag k="addr:street:en" v="Mile Pop Jordanov"/>
		<tag k="amenity" v="hospital"/>
		<tag k="building" v="yes"/>
		<tag k="name" v="Рес Хумана ординација"/>
	</way>
	<way id="126355598" version="6" timestamp="2019-01-22T20:14:02Z" changeset="66549713" uid="6970734" user="Dekacc">
		<nd ref="6228086034"/>
		<nd ref="6228086035"/>
		<nd ref="4234366926"/>
		<nd ref="4224249980"/>
		<nd ref="4224249982"/>
		<nd ref="4224250090"/>
		<nd ref="4224250089"/>
		<nd ref="4224249979"/>
		<nd ref="1400953447"/>
		<nd ref="1400953433"/>
		<nd ref="1867119530"/>
		<nd ref="6228086034"/>
		<tag k="alt_name" v="Систина"/>
		<tag k="amenity" v="hospital"/>
		<tag k="name" v="Клиничка Болница Аџибадем Систина"/>
		<tag k="name:en" v="Acibadem Sistina Hospital"/>
	</way>
	<way id="152448287" version="1" timestamp="2012-02-29T10:46:38Z" changeset="10826650" uid="480785" user="BNicovski">
		<nd ref="1652685365"/>
		<nd ref="1652685364"/>
		<nd ref="1652685367"/>
		<nd ref="1652685372"/>
		<nd ref="1652685365"/>
		<tag k="amenity" v="hospital"/>
		<tag k="name" v="Ординација Срце"/>
	</way>
	<way id="164191033" version="4" timestamp="2017-12-16T23:03:24Z" changeset="54692334" uid="6970734" user="Dekacc">
		<nd ref="1758468903"/>
		<nd ref="5288522423"/>
		<nd ref="5288522424"/>
		<nd ref="1758468941"/>
		<nd ref="1758468912"/>
		<nd ref="1359271238"/>
		<nd ref="1758468916"/>
		<nd ref="5288522425"/>
		<nd ref="1758468903"/>
		<tag k="addr:city" v="Cкoпje"/>
		<tag k="addr:city:en" v="Skopje"/>
		<tag k="addr:country" v="MK"/>
		<tag k="addr:housenumber" v="28"/>
		<tag k="addr:postcode" v="1000"/>
		<tag k="addr:street" v="Митрополит Теодосиј Гологанов"/>
		<tag k="amenity" v="hospital"/>
		<tag k="building" v="yes"/>
		<tag k="name" v="Др. Анчевски"/>
		<tag k="wheelchair" v="limited"/>
	</way>
	<way id="175160544" version="5" timestamp="2015-07-11T19:00:49Z" changeset="32568965" uid="1468248" user="TheBlackMan">
		<nd ref="1857986072"/>
		<nd ref="1857986094"/>
		<nd ref="1857986108"/>
		<nd ref="1857986099"/>
		<nd ref="1857986072"/>
		<tag k="addr:city" v="Cкoпje"/>
		<tag k="addr:city:en" v="Skopje"/>
		<tag k="addr:country" v="MK"/>
		<tag k="addr:postcode" v="1000"/>
		<tag k="amenity" v="hospital"/>
		<tag k="building" v="office"/>
		<tag k="name" v="Амбуланта Авткоманда"/>
	</way>
	<way id="175293043" version="3" timestamp="2017-02-15T22:44:27Z" changeset="46121363" uid="1723055" user="Johnny Mapperseed">
		<nd ref="1859079463"/>
		<nd ref="1859079460"/>
		<nd ref="1859079464"/>
		<nd ref="1859079467"/>
		<nd ref="4687780346"/>
		<nd ref="4687780347"/>
		<nd ref="1859079463"/>
		<tag k="addr:city" v="Cкoпje"/>
		<tag k="addr:city:en" v="Skopje"/>
		<tag k="addr:country" v="MK"/>
		<tag k="addr:postcode" v="1000"/>
		<tag k="amenity" v="hospital"/>
		<tag k="building" v="yes"/>
		<tag k="name" v="Ремедика"/>
	</way>
	<way id="175293044" version="3" timestamp="2015-07-11T19:02:48Z" changeset="32568965" uid="1468248" user="TheBlackMan">
		<nd ref="1859079465"/>
		<nd ref="1859079469"/>
		<nd ref="1859079466"/>
		<nd ref="1859079474"/>
		<nd ref="1859079470"/>
		<nd ref="1859079472"/>
		<nd ref="1859079473"/>
		<nd ref="1859079462"/>
		<nd ref="1859079468"/>
		<nd ref="1859079465"/>
		<tag k="addr:city" v="Cкoпje"/>
		<tag k="addr:city:en" v="Skopje"/>
		<tag k="addr:country" v="MK"/>
		<tag k="addr:postcode" v="1000"/>
		<tag k="amenity" v="hospital"/>
		<tag k="building" v="yes"/>
		<tag k="name" v="Поликлиника Железара"/>
	</way>
	<way id="175516639" version="6" timestamp="2016-04-27T16:47:38Z" changeset="38926255" uid="1468248" user="TheBlackMan">
		<nd ref="1860925731"/>
		<nd ref="4151702373"/>
		<nd ref="1860925748"/>
		<nd ref="1860925752"/>
		<nd ref="1860925759"/>
		<nd ref="1860925726"/>
		<nd ref="4151702381"/>
		<nd ref="1860925728"/>
		<nd ref="1860925725"/>
		<nd ref="1860925750"/>
		<nd ref="1860925758"/>
		<nd ref="4151702372"/>
		<nd ref="1860925731"/>
		<tag k="addr:city" v="Cкoпje"/>
		<tag k="addr:city:en" v="Skopje"/>
		<tag k="addr:country" v="MK"/>
		<tag k="addr:postcode" v="1000"/>
		<tag k="amenity" v="hospital"/>
		<tag k="building" v="yes"/>
		<tag k="emergency" v="yes"/>
		<tag k="name" v="Поликлиника Идадија - Млин Балкан"/>
	</way>
	<way id="175892204" version="8" timestamp="2019-02-18T20:22:47Z" changeset="67328825" uid="9319448" user="Unicorn Ostrich">
		<nd ref="1864488368"/>
		<nd ref="1864488411"/>
		<nd ref="1864488392"/>
		<nd ref="1864488365"/>
		<nd ref="1864488372"/>
		<nd ref="1864488359"/>
		<nd ref="1864488348"/>
		<nd ref="1864488297"/>
		<nd ref="1864488318"/>
		<nd ref="1864488681"/>
		<nd ref="1864488367"/>
		<nd ref="1864488322"/>
		<nd ref="1864488278"/>
		<nd ref="1864488368"/>
		<tag k="addr:street" v="Втора Македонска Бригада"/>
		<tag k="amenity" v="hospital"/>
		<tag k="name" v="Поликлиника Чаир"/>
	</way>
	<way id="175905539" version="4" timestamp="2017-01-17T19:08:06Z" changeset="45251104" uid="4106193" user="BetaEng">
		<nd ref="1864640050"/>
		<nd ref="1864640124"/>
		<nd ref="1864640106"/>
		<nd ref="1864640047"/>
		<nd ref="1864640014"/>
		<nd ref="1864640020"/>
		<nd ref="1864640114"/>
		<nd ref="1864640056"/>
		<nd ref="1864640012"/>
		<nd ref="1864640074"/>
		<nd ref="1864640032"/>
		<nd ref="1864640003"/>
		<nd ref="1864640036"/>
		<nd ref="1864640050"/>
		<tag k="addr:city" v="Cкoпje"/>
		<tag k="addr:city:en" v="Skopje"/>
		<tag k="addr:country" v="MK"/>
		<tag k="addr:housenumber" v="ББ"/>
		<tag k="addr:postcode" v="1000"/>
		<tag k="addr:street" v="Дижонска"/>
		<tag k="amenity" v="hospital"/>
		<tag k="building" v="yes"/>
		<tag k="contact:phone" v="2611-033"/>
		<tag k="name" v="Гинеколошко акушерска болница-Чаир &#39;&#39;Мајка Тереза&#39;&#39;&#39;"/>
	</way>
	<way id="176156176" version="8" timestamp="2020-02-14T03:21:12Z" changeset="80983053" uid="9451067" user="b-jazz-bot">
		<nd ref="1867119543"/>
		<nd ref="1867119528"/>
		<nd ref="4234366922"/>
		<nd ref="4234366921"/>
		<nd ref="4234366919"/>
		<nd ref="709048959"/>
		<nd ref="4234366923"/>
		<nd ref="4234366924"/>
		<nd ref="4234366925"/>
		<nd ref="1867119525"/>
		<nd ref="1867119524"/>
		<nd ref="1867119542"/>
		<nd ref="1867119526"/>
		<nd ref="1867119533"/>
		<nd ref="1867119543"/>
		<tag k="addr:city" v="Cкoпje"/>
		<tag k="addr:city:en" v="Skopje"/>
		<tag k="addr:country" v="MK"/>
		<tag k="addr:postcode" v="1000"/>
		<tag k="addr:street" v="Скупи"/>
		<tag k="amenity" v="hospital"/>
		<tag k="building" v="yes"/>
		<tag k="building:levels" v="6"/>
		<tag k="email" v="callcenter@acibademsistina.mk"/>
		<tag k="name" v="Acibadem Sistina Hospital"/>
		<tag k="name:en" v="Acibadem Sistina Hospital"/>
		<tag k="name:sq" v="spitali sistina"/>
		<tag k="operator" v="Acibadem"/>
		<tag k="phone" v="+389 2 3099500"/>
		<tag k="website" v="https://www.acibademsistina.mk/"/>
	</way>
	<way id="176173911" version="4" timestamp="2017-09-05T04:13:35Z" changeset="51736086" uid="1815671" user="coloredstone">
		<nd ref="1867272078"/>
		<nd ref="1867268181"/>
		<nd ref="358090036"/>
		<nd ref="1867268183"/>
		<nd ref="1867268154"/>
		<nd ref="5078223567"/>
		<nd ref="5078223557"/>
		<nd ref="1867268159"/>
		<nd ref="1867272083"/>
		<nd ref="1867272078"/>
		<tag k="amenity" v="hospital"/>
		<tag k="name" v="Завод за физикална медицина и рехабилитација"/>
	</way>
	<way id="176293213" version="3" timestamp="2015-08-03T12:31:53Z" changeset="33068460" uid="1468248" user="TheBlackMan">
		<nd ref="1868404709"/>
		<nd ref="1868404705"/>
		<nd ref="1868404552"/>
		<nd ref="1868404546"/>
		<nd ref="1868404709"/>
		<tag k="amenity" v="hospital"/>
		<tag k="name" v="Амбуланта Бутел"/>
	</way>
	<way id="177404394" version="3" timestamp="2017-08-29T17:30:57Z" changeset="51551450" uid="6364842" user="ikocevski">
		<nd ref="1878627325"/>
		<nd ref="5067098012"/>
		<nd ref="1878627245"/>
		<nd ref="1878627235"/>
		<nd ref="1878627291"/>
		<nd ref="1878627247"/>
		<nd ref="1878627320"/>
		<nd ref="1878627234"/>
		<nd ref="1878627323"/>
		<nd ref="1878627284"/>
		<nd ref="1878627286"/>
		<nd ref="5014935667"/>
		<nd ref="1878627334"/>
		<nd ref="1878627338"/>
		<nd ref="1878627325"/>
		<tag k="amenity" v="hospital"/>
		<tag k="building" v="yes"/>
		<tag k="name" v="Поликлиника Ченто"/>
	</way>
	<way id="179747888" version="3" timestamp="2016-11-25T09:35:52Z" changeset="43940203" uid="2242362" user="e8aga9f">
		<nd ref="1901878252"/>
		<nd ref="1901878132"/>
		<nd ref="3787571417"/>
		<nd ref="3787571405"/>
		<nd ref="3787571432"/>
		<nd ref="1901878297"/>
		<nd ref="4520377165"/>
		<nd ref="4520377168"/>
		<nd ref="1901878160"/>
		<nd ref="1901878252"/>
		<tag k="amenity" v="hospital"/>
		<tag k="name" v="Центар за Јавно Здравје - Пролет"/>
	</way>
	<way id="185377843" version="3" timestamp="2015-07-11T19:00:50Z" changeset="32568965" uid="1468248" user="TheBlackMan">
		<nd ref="1959703554"/>
		<nd ref="1959703585"/>
		<nd ref="1959703586"/>
		<nd ref="1959703557"/>
		<nd ref="1959703560"/>
		<nd ref="1959703583"/>
		<nd ref="1959703580"/>
		<nd ref="1959703582"/>
		<nd ref="1959703576"/>
		<nd ref="1959703563"/>
		<nd ref="1959703588"/>
		<nd ref="1959703579"/>
		<nd ref="1959703554"/>
		<tag k="addr:city" v="Cкoпje"/>
		<tag k="addr:city:en" v="Skopje"/>
		<tag k="addr:country" v="MK"/>
		<tag k="addr:housenumber" v="56"/>
		<tag k="addr:postcode" v="1000"/>
		<tag k="addr:street" v="Петар Чаулев"/>
		<tag k="amenity" v="hospital"/>
		<tag k="building" v="public"/>
		<tag k="emergency" v="ambulance_station"/>
		<tag k="name" v="Амбуланта Влае"/>
	</way>
	<way id="408840915" version="4" timestamp="2019-02-12T18:21:28Z" changeset="67140314" uid="7466823" user="Whimsical Otter">
		<nd ref="4107484486"/>
		<nd ref="4107484487"/>
		<nd ref="5296448627"/>
		<nd ref="5296448628"/>
		<nd ref="5296448629"/>
		<nd ref="5296448630"/>
		<nd ref="4107484488"/>
		<nd ref="4107484889"/>
		<nd ref="4107484486"/>
		<tag k="addr:street" v="Новопроектирана"/>
		<tag k="amenity" v="hospital"/>
		<tag k="building" v="hospital"/>
		<tag k="emergency" v="yes"/>
		<tag k="name" v="Специјална Болница Филип Втори"/>
		<tag k="name:en" v="Special Hospital &#34;Filip Vtori&#34;"/>
	</way>
	<way id="422688582" version="3" timestamp="2019-05-28T11:08:31Z" changeset="70692325" uid="158784" user="bjankuloski">
		<nd ref="4224250098"/>
		<nd ref="4224250097"/>
		<nd ref="4224250093"/>
		<nd ref="4224250094"/>
		<nd ref="4224250098"/>
		<tag k="addr:city" v="Cкoпje"/>
		<tag k="addr:city:en" v="Skopje"/>
		<tag k="addr:country" v="MK"/>
		<tag k="addr:postcode" v="1000"/>
		<tag k="addr:street" v="Скупи"/>
		<tag k="amenity" v="hospital"/>
		<tag k="building" v="yes"/>
		<tag k="building:levels" v="6"/>
		<tag k="email" v="callcenter@acibademsistina.mk"/>
		<tag k="name" v="Болница „Аџибадем Систина“"/>
		<tag k="name:en" v="Acibadem Sistina Hospital"/>
		<tag k="operator" v="Acibadem"/>
		<tag k="phone" v="+389 2 3099500"/>
		<tag k="website" v="https://www.acibademsistina.mk/"/>
	</way>
	<way id="474923330" version="1" timestamp="2017-02-15T22:44:26Z" changeset="46121363" uid="1723055" user="Johnny Mapperseed">
		<nd ref="4127878236"/>
		<nd ref="4127878248"/>
		<nd ref="4127878233"/>
		<nd ref="4127878238"/>
		<nd ref="4127878230"/>
		<nd ref="4127878254"/>
		<nd ref="4405714510"/>
		<nd ref="4405714511"/>
		<nd ref="4687780348"/>
		<nd ref="4687780349"/>
		<nd ref="4687780350"/>
		<nd ref="4687780351"/>
		<nd ref="4687780352"/>
		<nd ref="4127878236"/>
		<tag k="amenity" v="hospital"/>
	</way>
	<way id="670082044" version="1" timestamp="2019-02-12T22:54:21Z" changeset="67146191" uid="9151615" user="AnonJason">
		<nd ref="6275319277"/>
		<nd ref="6275319276"/>
		<nd ref="1092300531"/>
		<nd ref="6275319275"/>
		<nd ref="6275319277"/>
		<tag k="addr:housenumber" v="53"/>
		<tag k="amenity" v="hospital"/>
		<tag k="building" v="yes"/>
		<tag k="emergency" v="no"/>
		<tag k="int_name" v="Clinic Volkovo"/>
		<tag k="is_in" v="Волково"/>
		<tag k="name" v="Амбуланта Волково"/>
	</way>
	<relation id="2963885" version="2" timestamp="2017-03-19T11:44:34Z" changeset="46978129" uid="665748" user="sebastic">
		<member type="way" ref="32302800" role="outer"/>
		<member type="way" ref="223427540" role="inner"/>
		<tag k="amenity" v="hospital"/>
		<tag k="building" v="yes"/>
		<tag k="name" v="Поликлиника Ѓорче Петров"/>
		<tag k="type" v="multipolygon"/>
	</relation>
	<relation id="4081495" version="3" timestamp="2018-03-13T17:51:52Z" changeset="57152844" uid="6444111" user="Milan Petkovski">
		<member type="way" ref="32490168" role="outer"/>
		<member type="way" ref="305981470" role="inner"/>
		<member type="way" ref="305981471" role="inner"/>
		<tag k="addr:city" v="Cкoпje"/>
		<tag k="addr:city:en" v="Skopje"/>
		<tag k="addr:country" v="MK"/>
		<tag k="addr:postcode" v="1000"/>
		<tag k="addr:street" v="Даме Груев"/>
		<tag k="amenity" v="hospital"/>
		<tag k="building" v="yes"/>
		<tag k="building:levels" v="3"/>
		<tag k="int_name" v="Gradska Bolnica"/>
		<tag k="name" v="Градска болница"/>
		<tag k="name:en" v="City Hospital"/>
		<tag k="name:mk" v="Градски клинички центар"/>
		<tag k="phone" v="+3892 323 5020"/>
		<tag k="type" v="multipolygon"/>
		<tag k="website" v="http://www.gradskahirurgija.org.mk"/>
	</relation>
	<relation id="8253944" version="2" timestamp="2018-04-29T05:52:14Z" changeset="58518735" uid="665748" user="sebastic">
		<member type="way" ref="176341927" role="outer"/>
		<member type="way" ref="584204640" role="inner"/>
		<member type="way" ref="584204638" role="inner"/>
		<member type="way" ref="584204639" role="inner"/>
		<tag k="addr:city" v="Cкoпje"/>
		<tag k="addr:city:en" v="Skopje"/>
		<tag k="addr:country" v="MK"/>
		<tag k="addr:postcode" v="1000"/>
		<tag k="amenity" v="hospital"/>
		<tag k="building" v="yes"/>
		<tag k="emergency" v="yes"/>
		<tag k="name" v="Градска Општа Болница “8ми Септември”"/>
		<tag k="type" v="multipolygon"/>
	</relation>
</osm>
