<?xml version='1.0' encoding='UTF-8'?>
<osm version="0.6" generator="osmfilter 1.4.4">
	<bounds minlat="41.9053" minlon="21.2537" maxlat="42.088" maxlon="21.6959"/>
	<node id="418904827" lat="41.9944128" lon="21.4063454" version="5" timestamp="2017-09-10T19:02:39Z" changeset="51917124" uid="6632749" user="martinkozle">
		<tag k="name" v="Вук;Никем"/>
		<tag k="tourism" v="hostel"/>
	</node>
	<node id="1381580746" lat="41.9842736" lon="21.4340308" version="1" timestamp="2011-08-01T09:03:24Z" changeset="8888661" uid="480785" user="BNicovski">
		<tag k="name" v="Хостел Хостел"/>
		<tag k="tourism" v="hostel"/>
	</node>
	<node id="1381585163" lat="41.9849555" lon="21.4321318" version="2" timestamp="2017-11-13T16:10:45Z" changeset="53744764" uid="5072781" user="Modern Chan">
		<tag k="addr:city" v="Cкoпje"/>
		<tag k="addr:housenumber" v="6"/>
		<tag k="addr:postcode" v="1000"/>
		<tag k="addr:street" v="Томе Арсовски"/>
		<tag k="name" v="Сити Хостел"/>
		<tag k="name:en" v="City Hostel"/>
		<tag k="phone" v="+389 70 226 165"/>
		<tag k="tourism" v="hostel"/>
	</node>
	<node id="2318244495" lat="41.9824332" lon="21.4347873" version="3" timestamp="2015-06-18T14:02:14Z" changeset="32051855" uid="1468248" user="TheBlackMan">
		<tag k="addr:housenumber" v="47"/>
		<tag k="addr:street" v="Tome Arsovski"/>
		<tag k="int_name" v="Kastelo"/>
		<tag k="name" v="Кастело"/>
		<tag k="name:en" v="Kastelo"/>
		<tag k="phone" v="+389 70 631 832"/>
		<tag k="tourism" v="hostel"/>
		<tag k="website" v="https://hostelkalonis.wordpress.com/"/>
	</node>
	<node id="4178297510" lat="41.9901385" lon="21.4061845" version="1" timestamp="2016-05-11T11:30:16Z" changeset="39239783" uid="131662" user="borces">
		<tag k="name" v="Арс"/>
		<tag k="tourism" v="hostel"/>
	</node>
	<node id="4358692689" lat="41.994574" lon="21.4417693" version="1" timestamp="2016-08-20T09:50:38Z" changeset="41573242" uid="4448418" user="Tomasz Marcinkiewicz">
		<tag k="internet_access" v="wlan"/>
		<tag k="name" v="key"/>
		<tag k="tourism" v="hostel"/>
	</node>
	<node id="4913493416" lat="41.9911246" lon="21.4219417" version="1" timestamp="2017-06-13T19:22:09Z" changeset="49509728" uid="172147" user="&#60;0174">
		<tag k="internet_access" v="wlan"/>
		<tag k="internet_access:fee" v="no"/>
		<tag k="name" v="The Comfy Hostel 2"/>
		<tag k="rooms" v="3"/>
		<tag k="tourism" v="hostel"/>
	</node>
	<node id="5293587921" lat="41.9854412" lon="21.4320007" version="2" timestamp="2019-07-30T11:03:05Z" changeset="72806276" uid="10189172" user="wwwnet">
		<tag k="addr:housenumber" v="6"/>
		<tag k="addr:street" v="Томе Арсовски"/>
		<tag k="name" v="시티 호스텔"/>
		<tag k="tourism" v="hostel"/>
	</node>
	<node id="5549667531" lat="41.9890144" lon="21.4421007" version="1" timestamp="2018-04-13T08:07:36Z" changeset="58056648" uid="131662" user="borces">
		<tag k="name" v="Guest House Station"/>
		<tag k="tourism" v="hostel"/>
	</node>
	<node id="5549672423" lat="41.9891739" lon="21.4432433" version="1" timestamp="2018-04-13T08:11:44Z" changeset="58056648" uid="131662" user="borces">
		<tag k="internet_access" v="wlan"/>
		<tag k="name" v="Valentin 2"/>
		<tag k="opening_hours" v="14:00-22:00"/>
		<tag k="tourism" v="hostel"/>
		<tag k="wheelchair" v="no"/>
	</node>
	<node id="5624670968" lat="42.002504" lon="21.4236587" version="2" timestamp="2018-05-17T14:23:51Z" changeset="59052859" uid="131662" user="borces">
		<tag k="addr:housenumber" v="80"/>
		<tag k="addr:street" v="Наум Наумовски Борче"/>
		<tag k="email" v="skopje.lounge@gmail.com"/>
		<tag k="name" v="Lounge Hostel"/>
		<tag k="phone" v="+38976547165"/>
		<tag k="tourism" v="hostel"/>
		<tag k="website" v="http://loungehostel.mk/"/>
	</node>
	<node id="5840003675" lat="41.9812959" lon="21.4290454" version="3" timestamp="2019-03-01T16:52:34Z" changeset="67692616" uid="4240913" user="Corban8">
		<tag k="addr:housenumber" v="29"/>
		<tag k="addr:street" v="Банско"/>
		<tag k="name" v="Sirma&#39;s House"/>
		<tag k="tourism" v="hostel"/>
	</node>
	<node id="6040732548" lat="41.999111" lon="21.4159229" version="2" timestamp="2018-12-07T08:54:52Z" changeset="65261843" uid="480208" user="Svetle">
		<tag k="addr:city" v="Cкoпje"/>
		<tag k="addr:housenumber" v="14a"/>
		<tag k="addr:postcode" v="1000"/>
		<tag k="addr:street" v="Petar Pop Arsov"/>
		<tag k="name" v="Nordic Hostel"/>
		<tag k="tourism" v="hostel"/>
		<tag k="website" v="https://nordichostel.com"/>
	</node>
	<node id="6054048497" lat="41.9916244" lon="21.4451119" version="1" timestamp="2018-11-12T06:20:10Z" changeset="64393596" uid="9047835" user="YunDi88">
		<tag k="name:en" v="Hostel Amigo"/>
		<tag k="tourism" v="hostel"/>
	</node>
	<node id="6514898286" lat="41.9903456" lon="21.4160026" version="1" timestamp="2019-06-01T10:51:10Z" changeset="70832741" uid="4633196" user="tobagues">
		<tag k="addr:housenumber" v="41"/>
		<tag k="addr:street" v="Елисие Поповски Марко"/>
		<tag k="internet_access" v="wlan"/>
		<tag k="name:en" v="The Yard Guesthouse"/>
		<tag k="tourism" v="hostel"/>
	</node>
	<node id="6821158690" lat="41.9998152" lon="21.4377681" version="1" timestamp="2019-09-24T20:15:06Z" changeset="74876257" uid="9047835" user="YunDi88">
		<tag k="name" v="Hostel"/>
		<tag k="tourism" v="hostel"/>
	</node>
	<node id="6888000985" lat="41.9901859" lon="21.4365173" version="1" timestamp="2019-10-17T06:38:06Z" changeset="75814259" uid="9514036" user="Dmitrii Trunov">
		<tag k="name:en" v="Get Inn"/>
		<tag k="tourism" v="hostel"/>
	</node>
	<node id="7034400285" lat="41.9927005" lon="21.319065" version="1" timestamp="2019-12-04T20:05:40Z" changeset="77958828" uid="10517616" user="DemonHyper">
		<tag k="name" v="berlin"/>
		<tag k="name:en" v="berlyn"/>
		<tag k="tourism" v="hostel"/>
	</node>
	<way id="141969825" version="4" timestamp="2015-07-11T18:41:04Z" changeset="32568965" uid="1468248" user="TheBlackMan">
		<nd ref="1553919822"/>
		<nd ref="1553919820"/>
		<nd ref="1553919818"/>
		<nd ref="1553919819"/>
		<nd ref="3099334930"/>
		<nd ref="3099334929"/>
		<nd ref="1553919822"/>
		<tag k="addr:city" v="Cкoпje"/>
		<tag k="addr:city:en" v="Skopje"/>
		<tag k="addr:country" v="MK"/>
		<tag k="addr:housenumber" v="11"/>
		<tag k="addr:postcode" v="1000"/>
		<tag k="addr:street" v="Раде Јовчевски Корчагин"/>
		<tag k="building" v="yes"/>
		<tag k="name" v="Cханти Хостел"/>
		<tag k="name:en" v="Shanti Hostel"/>
		<tag k="tourism" v="hostel"/>
	</way>
	<way id="176158370" version="3" timestamp="2016-04-17T17:56:01Z" changeset="38648140" uid="1468248" user="TheBlackMan">
		<nd ref="1867138564"/>
		<nd ref="1867138515"/>
		<nd ref="1867138488"/>
		<nd ref="1867138533"/>
		<nd ref="1867138530"/>
		<nd ref="1867138521"/>
		<nd ref="1867138564"/>
		<tag k="addr:city" v="Cкoпje"/>
		<tag k="addr:city:en" v="Skopje"/>
		<tag k="addr:country" v="MK"/>
		<tag k="addr:postcode" v="1000"/>
		<tag k="building" v="yes"/>
		<tag k="name" v="Hostel 42"/>
		<tag k="tourism" v="hostel"/>
	</way>
	<way id="231126038" version="2" timestamp="2017-02-22T02:49:48Z" changeset="46293168" uid="1723055" user="Johnny Mapperseed">
		<nd ref="2395321384"/>
		<nd ref="2395321385"/>
		<nd ref="2395321382"/>
		<nd ref="2395321383"/>
		<nd ref="2395321384"/>
		<tag k="building" v="yes"/>
		<tag k="name" v="Backpackers Hostel"/>
		<tag k="tourism" v="hostel"/>
	</way>
	<way id="285071299" version="3" timestamp="2017-02-26T15:46:44Z" changeset="46418619" uid="4358750" user="mariegorman">
		<nd ref="2887575809"/>
		<nd ref="2887575810"/>
		<nd ref="2887575811"/>
		<nd ref="2887575829"/>
		<nd ref="2887575809"/>
		<tag k="addr:city" v="Cкoпje"/>
		<tag k="addr:city:en" v="Skopje"/>
		<tag k="addr:country" v="MK"/>
		<tag k="addr:housenumber" v="25"/>
		<tag k="addr:postcode" v="1000"/>
		<tag k="addr:street" v="Пролет"/>
		<tag k="building" v="yes"/>
		<tag k="name" v="Младински Хостел"/>
		<tag k="name:en" v="Youth Hostel Macedonia"/>
		<tag k="tourism" v="hostel"/>
	</way>
	<way id="305323351" version="2" timestamp="2015-07-11T18:41:03Z" changeset="32568965" uid="1468248" user="TheBlackMan">
		<nd ref="3099334425"/>
		<nd ref="3099334426"/>
		<nd ref="3099334427"/>
		<nd ref="3099334428"/>
		<nd ref="3099334425"/>
		<tag k="addr:city" v="Cкoпje"/>
		<tag k="addr:city:en" v="Skopje"/>
		<tag k="addr:country" v="MK"/>
		<tag k="addr:housenumber" v="18"/>
		<tag k="addr:postcode" v="1000"/>
		<tag k="addr:street" v="Преспанска"/>
		<tag k="building" v="yes"/>
		<tag k="name" v="Cханти Хостел 2"/>
		<tag k="name:en" v="Shanti Hostel 2"/>
		<tag k="tourism" v="hostel"/>
	</way>
	<way id="305323352" version="4" timestamp="2016-04-17T07:46:33Z" changeset="38636866" uid="1468248" user="TheBlackMan">
		<nd ref="3099334931"/>
		<nd ref="3099334932"/>
		<nd ref="3099334933"/>
		<nd ref="3099334934"/>
		<nd ref="3099334931"/>
		<tag k="addr:city" v="Cкoпje"/>
		<tag k="addr:city:en" v="Skopje"/>
		<tag k="addr:country" v="MK"/>
		<tag k="addr:housenumber" v="5"/>
		<tag k="addr:postcode" v="1000"/>
		<tag k="addr:street" v="Анте Хаџи Митков"/>
		<tag k="building" v="yes"/>
		<tag k="name" v="Арт Хостел"/>
		<tag k="name:en" v="Art Hostel"/>
		<tag k="tourism" v="hostel"/>
	</way>
	<way id="305647154" version="2" timestamp="2015-07-11T19:00:34Z" changeset="32568965" uid="1468248" user="TheBlackMan">
		<nd ref="3103097492"/>
		<nd ref="3103097493"/>
		<nd ref="3103097494"/>
		<nd ref="3103097495"/>
		<nd ref="3103097492"/>
		<tag k="addr:city" v="Cкoпje"/>
		<tag k="addr:city:en" v="Skopje"/>
		<tag k="addr:country" v="MK"/>
		<tag k="addr:housenumber" v="22"/>
		<tag k="addr:postcode" v="1000"/>
		<tag k="addr:street" v="Адолф Цибровски"/>
		<tag k="building" v="yes"/>
		<tag k="name" v="Urban Hostel"/>
		<tag k="tourism" v="hostel"/>
		<tag k="website" v="http://www.urbanhostel.com.mk/"/>
	</way>
	<way id="411111683" version="1" timestamp="2016-04-17T17:55:57Z" changeset="38648140" uid="1468248" user="TheBlackMan">
		<nd ref="4128439022"/>
		<nd ref="4128439042"/>
		<nd ref="4128439027"/>
		<nd ref="4128439010"/>
		<nd ref="4128439022"/>
		<tag k="addr:housenumber" v="1"/>
		<tag k="addr:street" v="Булевар Илинден"/>
		<tag k="building" v="yes"/>
		<tag k="name" v="Unity Hostel"/>
		<tag k="phone" v="+389 75 942494"/>
		<tag k="tourism" v="hostel"/>
		<tag k="website" v="unityhostel.mk"/>
	</way>
	<way id="445236484" version="3" timestamp="2017-02-26T15:59:54Z" changeset="46418907" uid="4358750" user="mariegorman">
		<nd ref="4426896846"/>
		<nd ref="4188951306"/>
		<nd ref="4426896829"/>
		<nd ref="4426902664"/>
		<nd ref="4426902665"/>
		<nd ref="4426902666"/>
		<nd ref="4426902667"/>
		<nd ref="4426896842"/>
		<nd ref="4426896846"/>
		<tag k="addr:city" v="Cкoпje"/>
		<tag k="addr:housenumber" v="102g"/>
		<tag k="addr:postcode" v="1000"/>
		<tag k="addr:street" v="Стив Наумов"/>
		<tag k="building" v="yes"/>
		<tag k="name" v="Get Inn Skopje Hostel"/>
		<tag k="phone" v="+389 2 3136 241"/>
		<tag k="smoking" v="outside"/>
		<tag k="tourism" v="hostel"/>
		<tag k="website" v="http://getinnskopjehostel.com/"/>
	</way>
	<way id="601116170" version="1" timestamp="2018-06-23T18:10:27Z" changeset="60106276" uid="4846445" user="Václav Fanta">
		<nd ref="5713960735"/>
		<nd ref="5713960734"/>
		<nd ref="5713960733"/>
		<nd ref="5713960732"/>
		<nd ref="5713960735"/>
		<tag k="addr:city" v="Skopje"/>
		<tag k="addr:country" v="MK"/>
		<tag k="addr:street" v="Vardarska"/>
		<tag k="building" v="yes"/>
		<tag k="internet_access" v="wlan"/>
		<tag k="internet_access:fee" v="no"/>
		<tag k="name" v="Hostel Kalonis Central"/>
		<tag k="tourism" v="hostel"/>
	</way>
	<way id="674126653" version="1" timestamp="2019-03-02T20:59:57Z" changeset="67723564" uid="480208" user="Svetle">
		<nd ref="6313125760"/>
		<nd ref="6313125761"/>
		<nd ref="6313125762"/>
		<nd ref="6313125763"/>
		<nd ref="6313125760"/>
		<tag k="addr:street" v="Борис Трајковски"/>
		<tag k="building" v="yes"/>
		<tag k="name" v="Domus hostel"/>
		<tag k="tourism" v="hostel"/>
	</way>
</osm>
