<?xml version='1.0' encoding='UTF-8'?>
<osm version="0.6" generator="osmfilter 1.4.4">
	<bounds minlat="41.9053" minlon="21.2537" maxlat="42.088" maxlon="21.6959"/>
	<node id="3832475969" lat="41.9431048" lon="21.6053588" version="1" timestamp="2015-11-12T12:23:46Z" changeset="35259957" uid="131662" user="borces">
		<tag k="name" v="Ливија"/>
		<tag k="name:en" v="Livija"/>
		<tag k="tourism" v="motel"/>
		<tag k="website" v="http://hotelimakedonija.com.mk/mk/Hotel/124/Motel-Livija-Skopje"/>
	</node>
	<node id="3925465176" lat="42.0477085" lon="21.3897191" version="1" timestamp="2016-01-03T14:26:50Z" changeset="36339234" uid="344903" user="Toyota_79">
		<tag k="name" v="Motel Villa"/>
		<tag k="stars" v="1"/>
		<tag k="tourism" v="motel"/>
	</node>
	<node id="4380047289" lat="42.0295518" lon="21.4411896" version="1" timestamp="2016-09-02T04:17:07Z" changeset="41861118" uid="4515781" user="Igorce Mladenovski">
		<tag k="tourism" v="motel"/>
	</node>
	<node id="4686742489" lat="42.0033332" lon="21.4424029" version="1" timestamp="2017-02-15T11:27:48Z" changeset="46104023" uid="4570913" user="Μπλενταρ Χαληντρη">
		<tag k="tourism" v="motel"/>
	</node>
	<way id="174342548" version="2" timestamp="2012-12-21T14:23:08Z" changeset="14355221" uid="78656" user="Walter Schlögl">
		<nd ref="1850409572"/>
		<nd ref="1850409502"/>
		<nd ref="1850409564"/>
		<nd ref="1850409539"/>
		<nd ref="1850409572"/>
		<tag k="name" v="Мотел-ресторан Олимпија"/>
		<tag k="tourism" v="motel"/>
	</way>
</osm>
